[
    {
        "Altitude(m)": 607897.641868758,
        "Argument of Periapsis(deg)": 0.0,
        "Eccentricity": 0.0,
        "Inclination(deg)": 60.0,
        "Latitude(deg)": -14.293088068756461,
        "Longitude(deg)": -63.38123323482236,
        "Mean Anomaly(deg)": -16.363600000000037,
        "RAAN(deg)": 45.0,
        "Satellite Name": "Test1 219",
        "Satellite Number": 219,
        "Semi-Major Axis(m)": 6980739.136638005,
        "Time(s)": 0
    },
    {
        "Altitude(m)": 607750.8421775413,
        "Argument of Periapsis(deg)": 0.00010418945913296404,
        "Eccentricity": 0.0,
        "Inclination(deg)": 60.0,
        "Latitude(deg)": -13.75892924344085,
        "Longitude(deg)": -63.094164575159844,
        "Mean Anomaly(deg)": -15.743493854538197,
        "RAAN(deg)": 44.99957995086026,
        "Satellite Name": "Test1 219",
        "Satellite Number": 219,
        "Semi-Major Axis(m)": 6980739.136638005,
        "Time(s)": 10
    }
]